[Satellite]
VERSION=1.1
NAME=NUDTSAT
NICKNAME=NUDTSAT
TLE1=1 42787U 17036Y   19317.85405332  .00001537  00000-0  66520-4 0  9995
TLE2=2 42787  97.3368  13.2821 0013195  67.4680 292.7950 15.23855607132702
STATUS=0
